start=new Date('2021-12-27T00:00:00.000Z').valueOf();
sats=[{"PERIAPSIS":"546.255","OBJECT_NAME":"STARLINK-1771","MEAN_MOTION":"15.06399219","REF_FRAME":"TEME","BSTAR":"0.00002399500000","CENTER_NAME":"EARTH","RA_OF_ASC_NODE":"63.9530","GP_ID":"192494310","NORAD_CAT_ID":"46384","TLE_LINE2":"2 46384  53.0569  63.9530 0001388  89.5684 270.5464 15.06399219 73060","MEAN_MOTION_DOT":"0.00000076","OBJECT_TYPE":"PAYLOAD","SEMIMAJOR_AXIS":"6925.351","PERIOD":"95.592","LAUNCH_DATE":"2020-09-03","ECCENTRICITY":"0.00013880","OBJECT_ID":"2020-062BM","ARG_OF_PERICENTER":"89.5684","DECAY_DATE":null,"REV_AT_EPOCH":"7306","ELEMENT_SET_NO":"999","EPHEMERIS_TYPE":"0","EPOCH":"2021-12-26T11:28:08.012064","FILE":"3251546","TLE_LINE1":"1 46384U 20062BM  21360.47787051  .00000076  00000-0  23995-4 0  9991","CLASSIFICATION_TYPE":"U","MEAN_ELEMENT_THEORY":"SGP4","TIME_SYSTEM":"UTC","COUNTRY_CODE":"US","MEAN_ANOMALY":"270.5464","APOAPSIS":"548.177","SITE":"AFETR","MEAN_MOTION_DDOT":"0.0000000000000","INCLINATION":"53.0569","RCS_SIZE":"LARGE"},{"ELEMENT_SET_NO":"999","EPOCH":"2021-12-26T22:36:54.473760","EPHEMERIS_TYPE":"0","REV_AT_EPOCH":"6833","COUNTRY_CODE":"US","TLE_LINE1":"1 46532U 20070A   21360.94229715  .00003559  00000-0  25768-3 0  9993","FILE":"3251846","CLASSIFICATION_TYPE":"U","MEAN_ELEMENT_THEORY":"SGP4","TIME_SYSTEM":"UTC","APOAPSIS":"548.851","SITE":"AFETR","MEAN_ANOMALY":"282.7690","MEAN_MOTION_DDOT":"0.0000000000000","RCS_SIZE":"LARGE","INCLINATION":"53.0525","PERIOD":"95.592","LAUNCH_DATE":"2020-10-06","ECCENTRICITY":"0.00023840","OBJECT_ID":"2020-070A","ARG_OF_PERICENTER":"77.3566","DECAY_DATE":null,"GP_ID":"192525483","RA_OF_ASC_NODE":"221.8797","NORAD_CAT_ID":"46532","MEAN_MOTION_DOT":"0.00003559","OBJECT_TYPE":"PAYLOAD","TLE_LINE2":"2 46532  53.0525 221.8797 0002384  77.3566 282.7690 15.06404426 68335","SEMIMAJOR_AXIS":"6925.335","OBJECT_NAME":"STARLINK-1644","MEAN_MOTION":"15.06404426","PERIAPSIS":"545.549","REF_FRAME":"TEME","BSTAR":"0.00025768000000","CENTER_NAME":"EARTH"},{"LAUNCH_DATE":"2020-10-06","PERIOD":"95.593","DECAY_DATE":null,"ARG_OF_PERICENTER":"76.5227","ECCENTRICITY":"0.00024930","OBJECT_ID":"2020-070B","COUNTRY_CODE":"US","TIME_SYSTEM":"UTC","FILE":"3251846","TLE_LINE1":"1 46533U 20070B   21360.88701746  .00000312  00000-0  39852-4 0  9990","CLASSIFICATION_TYPE":"U","MEAN_ELEMENT_THEORY":"SGP4","EPHEMERIS_TYPE":"0","EPOCH":"2021-12-26T21:17:18.308544","ELEMENT_SET_NO":"999","REV_AT_EPOCH":"6832","INCLINATION":"53.0510","RCS_SIZE":"LARGE","MEAN_MOTION_DDOT":"0.0000000000000","SITE":"AFETR","APOAPSIS":"548.989","MEAN_ANOMALY":"283.6039","MEAN_MOTION":"15.06384128","OBJECT_NAME":"STARLINK-1648","PERIAPSIS":"545.536","CENTER_NAME":"EARTH","BSTAR":"0.00003985200000","REF_FRAME":"TEME","NORAD_CAT_ID":"46533","GP_ID":"192525231","RA_OF_ASC_NODE":"222.1358","SEMIMAJOR_AXIS":"6925.397","OBJECT_TYPE":"PAYLOAD","MEAN_MOTION_DOT":"0.00000312","TLE_LINE2":"2 46533  53.0510 222.1358 0002493  76.5227 283.6039 15.06384128 68325"},{"LAUNCH_DATE":"2020-10-06","PERIOD":"95.593","ARG_OF_PERICENTER":"75.6448","DECAY_DATE":null,"ECCENTRICITY":"0.00020800","OBJECT_ID":"2020-070C","TLE_LINE1":"1 46534U 20070C   21360.93493318 -.00001468  00000-0 -79660-4 0  9996","FILE":"3251846","CLASSIFICATION_TYPE":"U","MEAN_ELEMENT_THEORY":"SGP4","TIME_SYSTEM":"UTC","COUNTRY_CODE":"US","REV_AT_EPOCH":"6833","ELEMENT_SET_NO":"999","EPHEMERIS_TYPE":"0","EPOCH":"2021-12-26T22:26:18.226752","MEAN_MOTION_DDOT":"0.0000000000000","RCS_SIZE":"LARGE","INCLINATION":"53.0517","MEAN_ANOMALY":"284.4771","APOAPSIS":"548.687","SITE":"AFETR","PERIAPSIS":"545.806","OBJECT_NAME":"STARLINK-1659","MEAN_MOTION":"15.06389183","CENTER_NAME":"EARTH","BSTAR":"-0.00007966000000","REF_FRAME":"TEME","NORAD_CAT_ID":"46534","RA_OF_ASC_NODE":"221.9070","GP_ID":"192523981","SEMIMAJOR_AXIS":"6925.382","TLE_LINE2":"2 46534  53.0517 221.9070 0002080  75.6448 284.4771 15.06389183 68337","MEAN_MOTION_DOT":"-0.00001468","OBJECT_TYPE":"PAYLOAD"},{"OBJECT_NAME":"STARLINK-1663","MEAN_MOTION":"15.06386797","PERIAPSIS":"545.676","REF_FRAME":"TEME","BSTAR":"0.00002975000000","CENTER_NAME":"EARTH","GP_ID":"192524732","RA_OF_ASC_NODE":"222.2656","NORAD_CAT_ID":"46535","MEAN_MOTION_DOT":"0.00000161","OBJECT_TYPE":"PAYLOAD","TLE_LINE2":"2 46535  53.0535 222.2656 0002278  69.5639 290.5594 15.06386797 68312","SEMIMAJOR_AXIS":"6925.389","PERIOD":"95.593","LAUNCH_DATE":"2020-10-06","ECCENTRICITY":"0.00022780","OBJECT_ID":"2020-070D","ARG_OF_PERICENTER":"69.5639","DECAY_DATE":null,"ELEMENT_SET_NO":"999","EPHEMERIS_TYPE":"0","EPOCH":"2021-12-26T20:34:50.355264","REV_AT_EPOCH":"6831","COUNTRY_CODE":"US","TLE_LINE1":"1 46535U 20070D   21360.85752726  .00000161  00000-0  29750-4 0  9991","MEAN_ELEMENT_THEORY":"SGP4","FILE":"3251846","CLASSIFICATION_TYPE":"U","TIME_SYSTEM":"UTC","APOAPSIS":"548.832","SITE":"AFETR","MEAN_ANOMALY":"290.5594","MEAN_MOTION_DDOT":"0.0000000000000","RCS_SIZE":"LARGE","INCLINATION":"53.0535"},{"APOAPSIS":"340.184","SITE":"AFETR","MEAN_ANOMALY":"68.9149","MEAN_MOTION_DDOT":"0.0000000000000","INCLINATION":"53.0516","RCS_SIZE":"LARGE","ELEMENT_SET_NO":"999","EPOCH":"2021-12-26T18:40:26.514624","EPHEMERIS_TYPE":"0","REV_AT_EPOCH":"6906","COUNTRY_CODE":"US","TLE_LINE1":"1 46536U 20070E   21360.77808466  .00105144  00000-0  54832-3 0  9991","FILE":"3251846","CLASSIFICATION_TYPE":"U","MEAN_ELEMENT_THEORY":"SGP4","TIME_SYSTEM":"UTC","ECCENTRICITY":"0.00144030","OBJECT_ID":"2020-070E","ARG_OF_PERICENTER":"291.0332","DECAY_DATE":null,"PERIOD":"91.141","LAUNCH_DATE":"2020-10-06","MEAN_MOTION_DOT":"0.00105144","OBJECT_TYPE":"PAYLOAD","TLE_LINE2":"2 46536  53.0516 168.8280 0014403 291.0332  68.9149 15.79972152 69067","SEMIMAJOR_AXIS":"6708.656","GP_ID":"192524983","RA_OF_ASC_NODE":"168.8280","NORAD_CAT_ID":"46536","REF_FRAME":"TEME","BSTAR":"0.00054832000000","CENTER_NAME":"EARTH","OBJECT_NAME":"STARLINK-1668","MEAN_MOTION":"15.79972152","PERIAPSIS":"320.859"},{"DECAY_DATE":null,"ARG_OF_PERICENTER":"72.0796","ECCENTRICITY":"0.00024990","OBJECT_ID":"2020-070F","LAUNCH_DATE":"2020-10-06","PERIOD":"95.592","RCS_SIZE":"LARGE","INCLINATION":"53.0512","MEAN_MOTION_DDOT":"0.0000000000000","SITE":"AFETR","APOAPSIS":"548.941","MEAN_ANOMALY":"288.0465","COUNTRY_CODE":"US","TIME_SYSTEM":"UTC","TLE_LINE1":"1 46537U 20070F   21360.88333734  .00004235  00000-0  30306-3 0  9994","CLASSIFICATION_TYPE":"U","FILE":"3251846","MEAN_ELEMENT_THEORY":"SGP4","EPOCH":"2021-12-26T21:12:00.346176","EPHEMERIS_TYPE":"0","ELEMENT_SET_NO":"999","REV_AT_EPOCH":"6832","BSTAR":"0.00030306000000","CENTER_NAME":"EARTH","REF_FRAME":"TEME","MEAN_MOTION":"15.06400949","OBJECT_NAME":"STARLINK-1672","PERIAPSIS":"545.480","SEMIMAJOR_AXIS":"6925.346","OBJECT_TYPE":"PAYLOAD","MEAN_MOTION_DOT":"0.00004235","TLE_LINE2":"2 46537  53.0512 222.1489 0002499  72.0796 288.0465 15.06400949 68326","NORAD_CAT_ID":"46537","GP_ID":"192525732","RA_OF_ASC_NODE":"222.1489"},{"MEAN_MOTION_DOT":"0.00000769","OBJECT_TYPE":"PAYLOAD","TLE_LINE2":"2 46538  53.0531 221.9482 0002134  72.7559 287.3663 15.06396689 68325","SEMIMAJOR_AXIS":"6925.359","GP_ID":"192524482","RA_OF_ASC_NODE":"221.9482","NORAD_CAT_ID":"46538","REF_FRAME":"TEME","BSTAR":"0.00007051500000","CENTER_NAME":"EARTH","MEAN_MOTION":"15.06396689","OBJECT_NAME":"STARLINK-1678","PERIAPSIS":"545.746","APOAPSIS":"548.702","SITE":"AFETR","MEAN_ANOMALY":"287.3663","MEAN_MOTION_DDOT":"0.0000000000000","INCLINATION":"53.0531","RCS_SIZE":"LARGE","ELEMENT_SET_NO":"999","EPOCH":"2021-12-26T22:15:41.292000","EPHEMERIS_TYPE":"0","REV_AT_EPOCH":"6832","COUNTRY_CODE":"US","MEAN_ELEMENT_THEORY":"SGP4","TLE_LINE1":"1 46538U 20070G   21360.92756125  .00000769  00000-0  70515-4 0  9998","FILE":"3251846","CLASSIFICATION_TYPE":"U","TIME_SYSTEM":"UTC","ECCENTRICITY":"0.00021340","OBJECT_ID":"2020-070G","ARG_OF_PERICENTER":"72.7559","DECAY_DATE":null,"PERIOD":"95.592","LAUNCH_DATE":"2020-10-06"},{"LAUNCH_DATE":"2020-10-06","PERIOD":"94.059","DECAY_DATE":null,"ARG_OF_PERICENTER":"61.5212","ECCENTRICITY":"0.00016690","OBJECT_ID":"2020-070H","COUNTRY_CODE":"US","TIME_SYSTEM":"UTC","TLE_LINE1":"1 46539U 20070H   21360.89617174  .00868971  00000-0  26677-1 0  9999","FILE":"3251846","MEAN_ELEMENT_THEORY":"SGP4","CLASSIFICATION_TYPE":"U","EPOCH":"2021-12-26T21:30:29.238336","EPHEMERIS_TYPE":"0","ELEMENT_SET_NO":"999","REV_AT_EPOCH":"6837","INCLINATION":"53.0478","RCS_SIZE":"LARGE","MEAN_MOTION_DDOT":"0.0000000000000","SITE":"AFETR","APOAPSIS":"474.095","MEAN_ANOMALY":"298.5956","MEAN_MOTION":"15.30958940","OBJECT_NAME":"STARLINK-1684","PERIAPSIS":"471.809","BSTAR":"0.02667700000000","CENTER_NAME":"EARTH","REF_FRAME":"TEME","NORAD_CAT_ID":"46539","GP_ID":"192524232","RA_OF_ASC_NODE":"219.0311","SEMIMAJOR_AXIS":"6851.087","OBJECT_TYPE":"PAYLOAD","MEAN_MOTION_DOT":"0.00868971","TLE_LINE2":"2 46539  53.0478 219.0311 0001669  61.5212 298.5956 15.30958940 68374"},{"DECAY_DATE":null,"ARG_OF_PERICENTER":"80.6669","OBJECT_ID":"2020-070K","ECCENTRICITY":"0.00025210","LAUNCH_DATE":"2020-10-06","PERIOD":"95.592","RCS_SIZE":"LARGE","INCLINATION":"53.0523","MEAN_MOTION_DDOT":"0.0000000000000","SITE":"AFETR","APOAPSIS":"548.960","MEAN_ANOMALY":"279.4604","COUNTRY_CODE":"US","TIME_SYSTEM":"UTC","TLE_LINE1":"1 46541U 20070K   21360.84096139  .00002693  00000-0  19963-3 0  9992","FILE":"3251846","CLASSIFICATION_TYPE":"U","MEAN_ELEMENT_THEORY":"SGP4","EPHEMERIS_TYPE":"0","EPOCH":"2021-12-26T20:10:59.064096","ELEMENT_SET_NO":"999","REV_AT_EPOCH":"6859","BSTAR":"0.00019963000000","CENTER_NAME":"EARTH","REF_FRAME":"TEME","OBJECT_NAME":"STARLINK-1687","MEAN_MOTION":"15.06399788","PERIAPSIS":"545.468","SEMIMAJOR_AXIS":"6925.349","OBJECT_TYPE":"PAYLOAD","MEAN_MOTION_DOT":"0.00002693","TLE_LINE2":"2 46541  53.0523 202.3229 0002521  80.6669 279.4604 15.06399788 68591","NORAD_CAT_ID":"46541","GP_ID":"192525484","RA_OF_ASC_NODE":"202.3229"}];
